NORAD_CAT_ID,OBJECT_NAME,OBJECT_TYPE,EPOCH,MEAN_MOTION,ECCENTRICITY,INCLINATION,RA_OF_ASC_NODE,ARG_OF_PERICENTER,MEAN_ANOMALY,BSTAR,MEAN_MOTION_DOT,MEAN_MOTION_DDOT,TLE_LINE0,TLE_LINE1,TLE_LINE2,SEMIMAJOR_AXIS,PERIOD,APOGEE,PERIGEE,DECAYED
52858.0,STARLINK-4198,PAYLOAD,2024-05-24 20:04:25,15.08837691,0.0001593,53.2183,79.4014,117.1902,242.9253,8.6137e-05,1.083e-05,0.0,0 STARLINK-4198,1 52858U 22062AE  24145.83640577  .00001083  00000-0  86137-4 0  9997,2 52858  53.2183  79.4014 0001593 117.1902 242.9253 15.08837691107706,6917.887,95.438,540.854,538.65,0.0
52858.0,STARLINK-4198,PAYLOAD,2024-05-25 11:58:16,15.08840425,0.0001101,53.218,76.4341,117.4217,242.6887,3.1032e-05,2.06e-06,0.0,0 STARLINK-4198,1 52858U 22062AE  24146.49880629  .00000206  00000-0  31032-4 0  9994,2 52858  53.2180  76.4341 0001101 117.4217 242.6887 15.08840425107316,6917.879,95.438,540.506,538.982,0.0
52858.0,STARLINK-4198,PAYLOAD,2024-05-25 19:55:13,15.08831641,0.0001507,53.2187,74.942,108.4671,251.6485,1.3013e-05,-8.1e-07,0.0,0 STARLINK-4198,1 52858U 22062AE  24146.83001584 -.00000081  00000-0  13013-4 0  9998,2 52858  53.2187  74.9420 0001507 108.4671 251.6485 15.08831641107851,6917.906,95.438,540.813,538.728,0.0
52858.0,STARLINK-4198,PAYLOAD,2024-05-26 14:59:51,15.08832842,0.0001301,53.2185,71.3792,89.2637,270.8504,9.8538e-05,1.28e-05,0.0,0 STARLINK-4198,1 52858U 22062AE  24147.62489663  .00001280  00000-0  98538-4 0  9990,2 52858  53.2185  71.3792 0001301  89.2637 270.8504 15.08832842107480,6917.902,95.438,540.667,538.867,0.0
52858.0,STARLINK-4198,PAYLOAD,2024-05-26 22:56:46,15.0883847,0.0001412,53.2183,69.8962,84.0873,276.028,0.00010922,1.451e-05,0.0,0 STARLINK-4198,1 52858U 22062AE  24147.95609447  .00001451  00000-0  10922-3 0  9990,2 52858  53.2183  69.8962 0001412  84.0873 276.0280 15.08838470107535,6917.885,95.438,540.727,538.773,0.0
52858.0,STARLINK-4198,PAYLOAD,2024-05-27 05:18:18,15.08846417,0.0001219,53.2182,68.7019,91.1062,269.007,0.0001762,2.518e-05,0.0,0 STARLINK-4198,1 52858U 22062AE  24148.22104682  .00002518  00000-0  17620-3 0  9999,2 52858  53.2182  68.7019 0001219  91.1062 269.0070 15.08846417108067,6917.861,95.437,540.569,538.882,0.0
52858.0,STARLINK-4198,PAYLOAD,2024-05-27 11:39:50,15.08845407,0.0001323,53.2186,67.5119,95.5594,264.5549,0.00017614,2.517e-05,0.0,0 STARLINK-4198,1 52858U 22062AE  24148.48600673  .00002517  00000-0  17614-3 0  9990,2 52858  53.2186  67.5119 0001323  95.5594 264.5549 15.08845407107612,6917.864,95.437,540.644,538.814,0.0
52858.0,STARLINK-4198,PAYLOAD,2024-05-27 22:47:33,15.08839884,0.0001371,53.219,65.4282,115.9297,244.1836,0.00012564,1.712e-05,0.0,0 STARLINK-4198,1 52858U 22062AE  24148.94969113  .00001712  00000-0  12564-3 0  9993,2 52858  53.2190  65.4282 0001371 115.9297 244.1836 15.08839884107687,6917.881,95.438,540.694,538.797,0.0
52858.0,STARLINK-4198,PAYLOAD,2024-05-28 03:33:42,15.08844945,0.0001281,53.2183,64.5374,92.8369,267.277,0.00014534,2.026e-05,0.0,0 STARLINK-4198,1 52858U 22062AE  24149.14840918  .00002026  00000-0  14534-3 0  9995,2 52858  53.2183  64.5374 0001281  92.8369 267.2770 15.08844945108200,6917.865,95.437,540.616,538.844,0.0
52858.0,STARLINK-4198,PAYLOAD,2024-05-28 11:30:38,15.08846927,0.0001235,53.2184,63.0504,92.0621,268.0513,0.00013695,1.893e-05,0.0,0 STARLINK-4198,1 52858U 22062AE  24149.47960682  .00001893  00000-0  13695-3 0  9990,2 52858  53.2184  63.0504 0001235  92.0621 268.0513 15.08846927107768,6917.859,95.437,540.579,538.87,0.0
52858.0,STARLINK-4198,PAYLOAD,2024-05-28 22:38:20,15.08843239,0.0001297,53.2184,60.9688,107.8437,252.2697,4.3426e-05,4.03e-06,0.0,0 STARLINK-4198,1 52858U 22062AE  24149.94329054  .00000403  00000-0  43426-4 0  9996,2 52858  53.2184  60.9688 0001297 107.8437 252.2697 15.08843239107834,6917.87,95.437,540.633,538.838,0.0
52858.0,STARLINK-4198,PAYLOAD,2024-05-29 03:24:29,15.08851486,0.0001346,53.2186,60.0774,92.3506,267.764,6.0444e-05,6.74e-06,0.0,0 STARLINK-4198,1 52858U 22062AE  24150.14200503  .00000674  00000-0  60444-4 0  9996,2 52858  53.2186  60.0774 0001346  92.3506 267.7640 15.08851486107868,6917.845,95.437,540.641,538.779,0.0
52858.0,STARLINK-4198,PAYLOAD,2024-05-29 17:42:58,15.08835806,0.0001251,53.2183,57.3968,109.2933,250.8195,-1.3717e-05,-5.06e-06,0.0,0 STARLINK-4198,1 52858U 22062AE  24150.73817600 -.00000506  00000-0 -13717-4 0  9990,2 52858  53.2183  57.3968 0001251 109.2933 250.8195 15.08835806108447,6917.893,95.438,540.624,538.893,0.0
52858.0,STARLINK-4198,PAYLOAD,2024-05-29 22:29:07,15.08843083,0.0001266,53.2172,56.5094,101.339,258.7745,-2.0346e-05,-6.12e-06,0.0,0 STARLINK-4198,1 52858U 22062AE  24150.93689212 -.00000612  00000-0 -20346-4 0  9992,2 52858  53.2172  56.5094 0001266 101.3390 258.7745 15.08843083107984,6917.871,95.437,540.612,538.86,0.0
52858.0,STARLINK-4198,PAYLOAD,2024-05-30 03:15:16,15.08845506,0.0001248,53.2175,55.6163,107.7496,252.3633,8.8364e-06,-1.47e-06,0.0,0 STARLINK-4198,1 52858U 22062AE  24151.13560915 -.00000147  00000-0  88364-5 0  9990,2 52858  53.2175  55.6163 0001248 107.7496 252.3633 15.08845506108508,6917.864,95.437,540.592,538.865,0.0
52858.0,STARLINK-4198,PAYLOAD,2024-05-30 22:19:53,15.08857174,0.0001484,53.2182,52.0493,123.887,236.2264,7.0268e-05,8.31e-06,0.0,0 STARLINK-4198,1 52858U 22062AE  24151.93048023  .00000831  00000-0  70268-4 0  9991,2 52858  53.2182  52.0493 0001484 123.8870 236.2264 15.08857174108134,6917.828,95.436,540.72,538.666,0.0
52858.0,STARLINK-4198,PAYLOAD,2024-05-31 03:06:02,15.08862071,0.000176,53.2196,51.1571,123.7862,236.3298,0.00013855,1.919e-05,0.0,0 STARLINK-4198,1 52858U 22062AE  24152.12919507  .00001919  00000-0  13855-3 0  9993,2 52858  53.2196  51.1571 0001760 123.7862 236.3298 15.08862071108650,6917.813,95.436,540.895,538.46,0.0
52858.0,STARLINK-4198,PAYLOAD,2024-05-31 20:35:17,15.088446,0.0001838,53.2172,47.8855,113.8031,246.3154,0.00014991,2.099e-05,0.0,0 STARLINK-4198,1 52858U 22062AE  24152.85784699  .00002099  00000-0  14991-3 0  9997,2 52858  53.2172  47.8855 0001838 113.8031 246.3154 15.08844600108767,6917.866,95.437,541.003,538.46,0.0
52858.0,STARLINK-4198,PAYLOAD,2024-05-31 22:10:41,15.08843491,0.000134,53.2179,47.5888,97.6297,262.4847,0.00012473,1.698e-05,0.0,0 STARLINK-4198,1 52858U 22062AE  24152.92408804  .00001698  00000-0  12473-3 0  9993,2 52858  53.2179  47.5888 0001340  97.6297 262.4847 15.08843491108280,6917.87,95.437,540.662,538.808,0.0
52858.0,STARLINK-4198,PAYLOAD,2024-05-31 23:46:04,15.0884736,0.0001249,53.218,47.2917,88.2611,271.8524,0.00015457,2.173e-05,0.0,0 STARLINK-4198,1 52858U 22062AE  24152.99032645  .00002173  00000-0  15457-3 0  9990,2 52858  53.2180  47.2917 0001249  88.2611 271.8524 15.08847360108292,6917.858,95.437,540.587,538.859,0.0
52858.0,STARLINK-4198,PAYLOAD,2024-06-01 20:26:05,15.08837686,0.0001236,53.2181,43.4277,85.664,274.4494,-3.3502e-05,-8.21e-06,0.0,0 STARLINK-4198,1 52858U 22062AE  24153.85145133 -.00000821  00000-0 -33502-4 0  9995,2 52858  53.2181  43.4277 0001236  85.6640 274.4494 15.08837686108913,6917.887,95.438,540.608,538.897,0.0
52858.0,STARLINK-4198,PAYLOAD,2024-06-02 09:09:10,15.08841798,0.0001127,53.2173,41.0466,80.8222,279.2898,-1.4114e-05,-5.12e-06,0.0,0 STARLINK-4198,1 52858U 22062AE  24154.38136771 -.00000512  00000-0 -14114-4 0  9997,2 52858  53.2173  41.0466 0001127  80.8222 279.2898 15.08841798108505,6917.875,95.437,540.52,538.96,0.0
52858.0,STARLINK-4198,PAYLOAD,2024-06-02 23:27:38,15.08836381,0.0001111,53.2175,38.371,76.3636,283.748,5.7212e-06,-1.97e-06,0.0,0 STARLINK-4198,1 52858U 22062AE  24154.97753372 -.00000197  00000-0  57212-5 0  9999,2 52858  53.2175  38.3710 0001111  76.3636 283.7480 15.08836381109083,6917.891,95.438,540.525,538.988,0.0
52858.0,STARLINK-4198,PAYLOAD,2024-06-03 08:59:57,15.08839639,0.0001113,53.2174,36.587,76.6791,283.4326,5.4687e-05,5.83e-06,0.0,0 STARLINK-4198,1 52858U 22062AE  24155.37497342  .00000583  00000-0  54687-4 0  9996,2 52858  53.2174  36.5870 0001113  76.6791 283.4326 15.08839639108653,6917.881,95.438,540.516,538.977,0.0
52858.0,STARLINK-4198,PAYLOAD,2024-06-04 00:53:48,15.0884681,0.0001026,53.2171,33.6136,83.3122,276.7986,0.00019165,2.764e-05,0.0,0 STARLINK-4198,1 52858U 22062AE  24156.03737009  .00002764  00000-0  19165-3 0  9991,2 52858  53.2171  33.6136 0001026  83.3122 276.7986 15.08846810109241,6917.86,95.437,540.434,539.015,0.0
52858.0,STARLINK-4198,PAYLOAD,2024-06-04 08:50:44,15.08847207,0.0001048,53.2177,32.1256,69.704,290.4065,0.00015421,2.168e-05,0.0,0 STARLINK-4198,1 52858U 22062AE  24156.36856928  .00002168  00000-0  15421-3 0  9998,2 52858  53.2177  32.1256 0001048  69.7040 290.4065 15.08847207108808,6917.858,95.437,540.448,538.998,0.0
52858.0,STARLINK-4198,PAYLOAD,2024-06-04 23:09:13,15.08838965,0.0001175,53.2163,29.4493,66.0398,294.0717,6.4212e-05,7.34e-06,0.0,0 STARLINK-4198,1 52858U 22062AE  24156.96473423  .00000734  00000-0  64212-4 0  9999,2 52858  53.2163  29.4493 0001175  66.0398 294.0717 15.08838965109381,6917.884,95.438,540.561,538.936,0.0
52858.0,STARLINK-4198,PAYLOAD,2024-06-05 15:03:04,15.08837146,6.96e-05,53.2145,26.4779,81.4518,278.6553,-6.1506e-06,-3.85e-06,0.0,0 STARLINK-4198,1 52858U 22062AE  24157.62713442 -.00000385  00000-0 -61506-5 0  9999,2 52858  53.2145  26.4779 0000696  81.4518 278.6553 15.08837146108999,6917.889,95.438,540.236,539.273,0.0
52858.0,STARLINK-4198,PAYLOAD,2024-06-05 21:24:37,15.08836121,7.52e-05,53.2148,25.288,82.404,277.7038,-4.3532e-06,-3.57e-06,0.0,0 STARLINK-4198,1 52858U 22062AE  24157.89209606 -.00000357  00000-0 -43532-5 0  9998,2 52858  53.2148  25.2880 0000752  82.4040 277.7038 15.08836121109032,6917.892,95.438,540.277,539.237,0.0
52858.0,STARLINK-4198,PAYLOAD,2024-06-06 08:32:19,15.08839579,0.0001371,53.2162,23.2084,77.197,282.9175,6.0066e-05,6.68e-06,0.0,0 STARLINK-4198,1 52858U 22062AE  24158.35577784  .00000668  00000-0  60066-4 0  9998,2 52858  53.2162  23.2084 0001371  77.1970 282.9175 15.08839579109594,6917.882,95.438,540.695,538.798,0.0
